CCSDS_OMM_VERS = 2.0
CREATION_DATE  = 
ORIGINATOR     = 

OBJECT_NAME    = IDEFIX & ARIANE 42P R/B
OBJECT_ID      = 2002-021B
CENTER_NAME    = EARTH
REF_FRAME      = TEME
TIME_SYSTEM    = UTC
MEAN_ELEMENT_THEORY = SGP/SGP4

EPOCH          = 2026-02-19T19:20:40.703424
MEAN_MOTION    = 14.31012476
ECCENTRICITY   = .00107399
INCLINATION    = 98.5855
RA_OF_ASC_NODE = 349.6281
ARG_OF_PERICENTER = 238.0664
MEAN_ANOMALY   = 121.9475

EPHEMERIS_TYPE = 0
CLASSIFICATION_TYPE = U
NORAD_CAT_ID   = 27422
ELEMENT_SET_NO = 999
REV_AT_EPOCH   = 24146
BSTAR          = .11396033E-3
MEAN_MOTION_DOT = .256E-5
MEAN_MOTION_DDOT = 0

CCSDS_OMM_VERS = 2.0
CREATION_DATE  = 
ORIGINATOR     = 

OBJECT_NAME    = AQUA
OBJECT_ID      = 2002-022A
CENTER_NAME    = EARTH
REF_FRAME      = TEME
TIME_SYSTEM    = UTC
MEAN_ELEMENT_THEORY = SGP/SGP4

EPOCH          = 2026-02-19T21:11:39.566112
MEAN_MOTION    = 14.61929766
ECCENTRICITY   = .0001091
INCLINATION    = 98.4143
RA_OF_ASC_NODE = 17.9284
ARG_OF_PERICENTER = 47.1009
MEAN_ANOMALY   = 339.7766

EPHEMERIS_TYPE = 0
CLASSIFICATION_TYPE = U
NORAD_CAT_ID   = 27424
ELEMENT_SET_NO = 999
REV_AT_EPOCH   = 26613
BSTAR          = .19426324E-3
MEAN_MOTION_DOT = .923E-5
MEAN_MOTION_DDOT = 0

CCSDS_OMM_VERS = 2.0
CREATION_DATE  = 
ORIGINATOR     = 

OBJECT_NAME    = CZ-4B R/B
OBJECT_ID      = 2002-024C
CENTER_NAME    = EARTH
REF_FRAME      = TEME
TIME_SYSTEM    = UTC
MEAN_ELEMENT_THEORY = SGP/SGP4

EPOCH          = 2026-02-19T15:08:35.966112
MEAN_MOTION    = 14.14544355
ECCENTRICITY   = .0051098
INCLINATION    = 98.8882
RA_OF_ASC_NODE = 104.1251
ARG_OF_PERICENTER = 74.8120
MEAN_ANOMALY   = 86.9154

EPHEMERIS_TYPE = 0
CLASSIFICATION_TYPE = U
NORAD_CAT_ID   = 27432
ELEMENT_SET_NO = 999
REV_AT_EPOCH   = 22668
BSTAR          = .45549E-4
MEAN_MOTION_DOT = .44E-6
MEAN_MOTION_DDOT = 0

CCSDS_OMM_VERS = 2.0
CREATION_DATE  = 
ORIGINATOR     = 

OBJECT_NAME    = MIDORI II (ADEOS-II)
OBJECT_ID      = 2002-056A
CENTER_NAME    = EARTH
REF_FRAME      = TEME
TIME_SYSTEM    = UTC
MEAN_ELEMENT_THEORY = SGP/SGP4

EPOCH          = 2026-02-19T21:10:38.860608
MEAN_MOTION    = 14.29270910
ECCENTRICITY   = .00021015
INCLINATION    = 98.7739
RA_OF_ASC_NODE = 9.2407
ARG_OF_PERICENTER = 67.3104
MEAN_ANOMALY   = 292.8299

EPHEMERIS_TYPE = 0
CLASSIFICATION_TYPE = U
NORAD_CAT_ID   = 27597
ELEMENT_SET_NO = 999
REV_AT_EPOCH   = 20775
BSTAR          = .11671568E-3
MEAN_MOTION_DOT = .252E-5
MEAN_MOTION_DDOT = 0

CCSDS_OMM_VERS = 2.0
CREATION_DATE  = 
ORIGINATOR     = 

OBJECT_NAME    = H-2A R/B
OBJECT_ID      = 2002-056E
CENTER_NAME    = EARTH
REF_FRAME      = TEME
TIME_SYSTEM    = UTC
MEAN_ELEMENT_THEORY = SGP/SGP4

EPOCH          = 2026-02-19T21:54:16.887744
MEAN_MOTION    = 14.33747648
ECCENTRICITY   = .00694173
INCLINATION    = 98.3171
RA_OF_ASC_NODE = 11.9587
ARG_OF_PERICENTER = 213.8142
MEAN_ANOMALY   = 213.0587

EPHEMERIS_TYPE = 0
CLASSIFICATION_TYPE = U
NORAD_CAT_ID   = 27601
ELEMENT_SET_NO = 999
REV_AT_EPOCH   = 21156
BSTAR          = .10008304E-3
MEAN_MOTION_DOT = .244E-5
MEAN_MOTION_DDOT = 0

CCSDS_OMM_VERS = 2.0
CREATION_DATE  = 
ORIGINATOR     = 

OBJECT_NAME    = CZ-4B R/B
OBJECT_ID      = 2003-049C
CENTER_NAME    = EARTH
REF_FRAME      = TEME
TIME_SYSTEM    = UTC
MEAN_ELEMENT_THEORY = SGP/SGP4

EPOCH          = 2026-02-19T21:59:37.271904
MEAN_MOTION    = 14.55000387
ECCENTRICITY   = .00470411
INCLINATION    = 98.6862
RA_OF_ASC_NODE = 45.1266
ARG_OF_PERICENTER = 286.4895
MEAN_ANOMALY   = 73.1135

EPHEMERIS_TYPE = 0
CLASSIFICATION_TYPE = U
NORAD_CAT_ID   = 28059
ELEMENT_SET_NO = 999
REV_AT_EPOCH   = 18401
BSTAR          = .10129227E-3
MEAN_MOTION_DOT = .39E-5
MEAN_MOTION_DDOT = 0

CCSDS_OMM_VERS = 2.0
CREATION_DATE  = 
ORIGINATOR     = 

OBJECT_NAME    = CZ-2C R/B
OBJECT_ID      = 2004-012C
CENTER_NAME    = EARTH
REF_FRAME      = TEME
TIME_SYSTEM    = UTC
MEAN_ELEMENT_THEORY = SGP/SGP4

EPOCH          = 2026-02-19T02:39:23.743008
MEAN_MOTION    = 15.62280756
ECCENTRICITY   = .00147676
INCLINATION    = 97.7278
RA_OF_ASC_NODE = 113.6725
ARG_OF_PERICENTER = 22.5747
MEAN_ANOMALY   = 337.6156

EPHEMERIS_TYPE = 0
CLASSIFICATION_TYPE = U
NORAD_CAT_ID   = 28222
ELEMENT_SET_NO = 999
REV_AT_EPOCH   = 20137
BSTAR          = .49065007E-3
MEAN_MOTION_DOT = .43519E-3
MEAN_MOTION_DDOT = 0

CCSDS_OMM_VERS = 2.0
CREATION_DATE  = 
ORIGINATOR     = 

OBJECT_NAME    = SL-16 R/B
OBJECT_ID      = 2004-021B
CENTER_NAME    = EARTH
REF_FRAME      = TEME
TIME_SYSTEM    = UTC
MEAN_ELEMENT_THEORY = SGP/SGP4

EPOCH          = 2026-02-19T20:23:25.901376
MEAN_MOTION    = 14.14596735
ECCENTRICITY   = .00032597
INCLINATION    = 70.9989
RA_OF_ASC_NODE = 269.9336
ARG_OF_PERICENTER = 51.7577
MEAN_ANOMALY   = 308.3838

EPHEMERIS_TYPE = 0
CLASSIFICATION_TYPE = U
NORAD_CAT_ID   = 28353
ELEMENT_SET_NO = 999
REV_AT_EPOCH   = 12031
BSTAR          = .17166719E-3
MEAN_MOTION_DOT = .282E-5
MEAN_MOTION_DDOT = 0

CCSDS_OMM_VERS = 2.0
CREATION_DATE  = 
ORIGINATOR     = 

OBJECT_NAME    = CZ-4B R/B
OBJECT_ID      = 2004-035C
CENTER_NAME    = EARTH
REF_FRAME      = TEME
TIME_SYSTEM    = UTC
MEAN_ELEMENT_THEORY = SGP/SGP4

EPOCH          = 2026-02-19T15:34:22.348992
MEAN_MOTION    = 15.28711217
ECCENTRICITY   = .00332582
INCLINATION    = 97.3522
RA_OF_ASC_NODE = 85.1099
ARG_OF_PERICENTER = 35.5670
MEAN_ANOMALY   = 324.7778

EPHEMERIS_TYPE = 0
CLASSIFICATION_TYPE = U
NORAD_CAT_ID   = 28415
ELEMENT_SET_NO = 999
REV_AT_EPOCH   = 17715
BSTAR          = .27345797E-3
MEAN_MOTION_DOT = .7684E-4
MEAN_MOTION_DDOT = 0

CCSDS_OMM_VERS = 2.0
CREATION_DATE  = 
ORIGINATOR     = 

OBJECT_NAME    = CZ-2C R/B
OBJECT_ID      = 2004-046B
CENTER_NAME    = EARTH
REF_FRAME      = TEME
TIME_SYSTEM    = UTC
MEAN_ELEMENT_THEORY = SGP/SGP4

EPOCH          = 2026-02-19T17:53:26.014272
MEAN_MOTION    = 14.26985420
ECCENTRICITY   = .01387653
INCLINATION    = 98.1992
RA_OF_ASC_NODE = 326.8447
ARG_OF_PERICENTER = 207.5322
MEAN_ANOMALY   = 151.8462

EPHEMERIS_TYPE = 0
CLASSIFICATION_TYPE = U
NORAD_CAT_ID   = 28480
ELEMENT_SET_NO = 999
REV_AT_EPOCH   = 10594
BSTAR          = .54151297E-4
MEAN_MOTION_DOT = .104E-5
MEAN_MOTION_DDOT = 0

CCSDS_OMM_VERS = 2.0
CREATION_DATE  = 
ORIGINATOR     = 

OBJECT_NAME    = ARIANE 5 R/B
OBJECT_ID      = 2004-049H
CENTER_NAME    = EARTH
REF_FRAME      = TEME
TIME_SYSTEM    = UTC
MEAN_ELEMENT_THEORY = SGP/SGP4

EPOCH          = 2026-02-19T10:37:55.654464
MEAN_MOTION    = 14.85228489
ECCENTRICITY   = .00851367
INCLINATION    = 98.2595
RA_OF_ASC_NODE = 218.2208
ARG_OF_PERICENTER = 50.8125
MEAN_ANOMALY   = 310.0611

EPHEMERIS_TYPE = 0
CLASSIFICATION_TYPE = U
NORAD_CAT_ID   = 28499
ELEMENT_SET_NO = 999
REV_AT_EPOCH   = 14308
BSTAR          = .94270744E-4
MEAN_MOTION_DOT = .798E-5
MEAN_MOTION_DDOT = 0

CCSDS_OMM_VERS = 2.0
CREATION_DATE  = 
ORIGINATOR     = 

OBJECT_NAME    = CZ-2D R/B
OBJECT_ID      = 2005-024B
CENTER_NAME    = EARTH
REF_FRAME      = TEME
TIME_SYSTEM    = UTC
MEAN_ELEMENT_THEORY = SGP/SGP4

EPOCH          = 2026-02-19T14:41:02.639904
MEAN_MOTION    = 15.58466422
ECCENTRICITY   = .00076343
INCLINATION    = 97.3604
RA_OF_ASC_NODE = 65.1184
ARG_OF_PERICENTER = 89.8644
MEAN_ANOMALY   = 270.3487

EPHEMERIS_TYPE = 0
CLASSIFICATION_TYPE = U
NORAD_CAT_ID   = 28738
ELEMENT_SET_NO = 999
REV_AT_EPOCH   = 13696
BSTAR          = .46596624E-3
MEAN_MOTION_DOT = .35555E-3
MEAN_MOTION_DDOT = 0

