IDEFIX & ARIANE 42P R/B 
1 27422U 02021B   26050.80602666  .00000256  00000+0  11396-3 0  9994
2 27422  98.5855 349.6281 0010739 238.0664 121.9475 14.31012476241466
AQUA                    
1 27424U 02022A   26050.88309683  .00000923  00000+0  19426-3 0  9991
2 27424  98.4143  17.9284 0001091  47.1009 339.7766 14.61929766266133
CZ-4B R/B               
1 27432U 02024C   26050.63097183  .00000044  00000+0  45549-4 0  9994
2 27432  98.8882 104.1251 0051098  74.8120  86.9154 14.14544355226685
MIDORI II (ADEOS-II)    
1 27597U 02056A   26050.88239422  .00000252  00000+0  11672-3 0  9992
2 27597  98.7739   9.2407 0002101  67.3104 292.8299 14.29270910207759
H-2A R/B                
1 27601U 02056E   26050.91269546  .00000244  00000+0  10008-3 0  9995
2 27601  98.3171  11.9587 0069417 213.8142 213.0587 14.33747648211564
CZ-4B R/B               
1 28059U 03049C   26050.91640361  .00000390  00000+0  10129-3 0  9990
2 28059  98.6862  45.1266 0047041 286.4895  73.1135 14.55000387184014
CZ-2C R/B               
1 28222U 04012C   26050.11069147  .00043519  00000+0  49065-3 0  9993
2 28222  97.7278 113.6725 0014767  22.5747 337.6156 15.62280756201371
SL-16 R/B               
1 28353U 04021B   26050.84960534  .00000282  00000+0  17167-3 0  9996
2 28353  70.9989 269.9336 0003259  51.7577 308.3838 14.14596735120319
CZ-4B R/B               
1 28415U 04035C   26050.64886978  .00007684  00000+0  27346-3 0  9990
2 28415  97.3522  85.1099 0033258  35.5670 324.7778 15.28711217177153
CZ-2C R/B               
1 28480U 04046B   26050.74543998  .00000104  00000+0  54151-4 0  9992
2 28480  98.1992 326.8447 0138765 207.5322 151.8462 14.26985420105944
ARIANE 5 R/B            
1 28499U 04049H   26050.44300526  .00000798  00000+0  94271-4 0  9996
2 28499  98.2595 218.2208 0085136  50.8125 310.0611 14.85228489143088
CZ-2D R/B               
1 28738U 05024B   26050.61183611  .00035555  00000+0  46597-3 0  9995
2 28738  97.3604  65.1184 0007634  89.8644 270.3487 15.58466422136962
